COMMENT,ORIGINATOR,NORAD_CAT_ID,OBJECT_NAME,OBJECT_TYPE,CLASSIFICATION_TYPE,INTLDES,EPOCH,EPOCH_MICROSECONDS,MEAN_MOTION,ECCENTRICITY,INCLINATION,RA_OF_ASC_NODE,ARG_OF_PERICENTER,MEAN_ANOMALY,EPHEMERIS_TYPE,ELEMENT_SET_NO,REV_AT_EPOCH,BSTAR,MEAN_MOTION_DOT,MEAN_MOTION_DDOT,FILE,TLE_LINE0,TLE_LINE1,TLE_LINE2,OBJECT_ID,OBJECT_NUMBER,SEMIMAJOR_AXIS,PERIOD,APOGEE,PERIGEE,DECAYED
GENERATED VIA SPACETRACK.ORG API,18 SPCS,51976,STARLINK-3663,PAYLOAD,U,22025W,2024-03-16 07:49:44,371200,15.08870149,0.0001435,53.217,46.2511,98.1807,261.9348,0,999,11186,0.000644,9.985e-05,0.0,4228482,0 STARLINK-3663,1 51976U 22025W   24076.32620800  .00009985  00000-0  64400-3 0  9997,2 51976  53.2170  46.2511 0001435  98.1807 261.9348 15.08870149111866,2022-025W,51976,6917.788,95.436,540.646,538.661,0
GENERATED VIA SPACETRACK.ORG API,18 SPCS,51976,STARLINK-3663,PAYLOAD,U,22025W,2024-03-16 22:08:12,405984,15.08859306,0.0001565,53.2177,43.5752,95.6067,264.5103,0,999,11195,0.00033104,4.987e-05,0.0,4229019,0 STARLINK-3663,1 51976U 22025W   24076.92236581  .00004987  00000-0  33104-3 0  9996,2 51976  53.2177  43.5752 0001565  95.6067 264.5103 15.08859306111954,2022-025W,51976,6917.821,95.436,540.769,538.604,0
GENERATED VIA SPACETRACK.ORG API,18 SPCS,51976,STARLINK-3663,PAYLOAD,U,22025W,2024-03-17 04:29:44,933568,15.08853229,0.0001432,53.2181,42.3861,88.5581,271.5575,0,999,11310,9.7721e-05,1.268e-05,0.0,4229539,0 STARLINK-3663,1 51976U 22025W   24077.18732562  .00001268  00000-0  97721-4 0  9990,2 51976  53.2181  42.3861 0001432  88.5581 271.5575 15.08853229113100,2022-025W,51976,6917.84,95.437,540.696,538.714,0
GENERATED VIA SPACETRACK.ORG API,18 SPCS,51976,STARLINK-3663,PAYLOAD,U,22025W,2024-03-17 04:29:44,933568,15.08853229,0.0001432,53.2181,42.3861,88.5581,271.5575,0,999,11199,9.7721e-05,1.268e-05,0.0,4230125,0 STARLINK-3663,1 51976U 22025W   24077.18732562  .00001268  00000-0  97721-4 0  9990,2 51976  53.2181  42.3861 0001432  88.5581 271.5575 15.08853229111995,2022-025W,51976,6917.84,95.437,540.696,538.714,0
GENERATED VIA SPACETRACK.ORG API,18 SPCS,51976,STARLINK-3663,PAYLOAD,U,22025W,2024-03-17 21:58:59,71008,15.08851373,0.0001501,53.2185,39.1159,90.3786,269.7378,0,999,11210,4.5316e-05,4.33e-06,0.0,4230670,0 STARLINK-3663,1 51976U 22025W   24077.91596147  .00000433  00000-0  45316-4 0  9994,2 51976  53.2185  39.1159 0001501  90.3786 269.7378 15.08851373112100,2022-025W,51976,6917.846,95.437,540.749,538.672,0
GENERATED VIA SPACETRACK.ORG API,18 SPCS,51976,STARLINK-3663,PAYLOAD,U,22025W,2024-03-18 04:20:31,331616,15.0885389,0.0001528,53.2184,37.9266,95.8411,264.2755,0,999,11214,0.00010094,1.319e-05,0.0,4231680,0 STARLINK-3663,1 51976U 22025W   24078.18091819  .00001319  00000-0  10094-3 0  9998,2 51976  53.2184  37.9266 0001528  95.8411 264.2755 15.08853890112147,2022-025W,51976,6917.838,95.437,540.76,538.646,0
GENERATED VIA SPACETRACK.ORG API,18 SPCS,51976,STARLINK-3663,PAYLOAD,U,22025W,2024-03-18 20:14:22,858368,15.08845313,0.0001729,53.2187,34.9523,110.1035,250.0144,0,999,11335,5.0597e-05,5.17e-06,0.0,4232150,0 STARLINK-3663,1 51976U 22025W   24078.84332012  .00000517  00000-0  50597-4 0  9996,2 51976  53.2187  34.9523 0001729 110.1035 250.0144 15.08845313113359,2022-025W,51976,6917.864,95.437,540.925,538.533,0
GENERATED VIA SPACETRACK.ORG API,18 SPCS,51976,STARLINK-3663,PAYLOAD,U,22025W,2024-03-18 21:49:46,86816,15.08842579,0.0001511,53.2186,34.6541,98.7961,261.3202,0,999,11225,2.311e-05,8e-07,0.0,4232179,0 STARLINK-3663,1 51976U 22025W   24078.90956119  .00000080  00000-0  23110-4 0  9999,2 51976  53.2186  34.6541 0001511  98.7961 261.3202 15.08842579112252,2022-025W,51976,6917.873,95.437,540.783,538.692,0
GENERATED VIA SPACETRACK.ORG API,18 SPCS,51976,STARLINK-3663,PAYLOAD,U,22025W,2024-03-19 02:35:55,641696,15.088405,0.0001501,53.2186,33.7618,96.6662,263.4501,0,999,11339,1.5883e-06,-2.63e-06,0.0,4233759,0 STARLINK-3663,1 51976U 22025W   24079.10828289 -.00000263  00000-0  15883-5 0  9991,2 51976  53.2186  33.7618 0001501  96.6662 263.4501 15.08840500113394,2022-025W,51976,6917.879,95.438,540.782,538.705,0
GENERATED VIA SPACETRACK.ORG API,18 SPCS,51976,STARLINK-3663,PAYLOAD,U,22025W,2024-03-19 02:35:55,641696,15.088405,0.0001501,53.2186,33.7618,96.6662,263.4501,0,999,11228,1.5883e-06,-2.63e-06,0.0,4233772,0 STARLINK-3663,1 51976U 22025W   24079.10828289 -.00000263  00000-0  15883-5 0  9991,2 51976  53.2186  33.7618 0001501  96.6662 263.4501 15.08840500112281,2022-025W,51976,6917.879,95.438,540.782,538.705,0
GENERATED VIA SPACETRACK.ORG API,18 SPCS,51976,STARLINK-3663,PAYLOAD,U,22025W,2024-03-20 00:51:17,825472,15.0886884,0.0001333,53.218,29.5967,94.4011,265.7134,0,999,11353,0.0003693,5.599e-05,0.0,4234074,0 STARLINK-3663,1 51976U 22025W   24080.03562298  .00005599  00000-0  36930-3 0  9990,2 51976  53.2180  29.5967 0001333  94.4011 265.7134 15.08868840113535,2022-025W,51976,6917.792,95.436,540.579,538.735,0
GENERATED VIA SPACETRACK.ORG API,18 SPCS,51976,STARLINK-3663,PAYLOAD,U,22025W,2024-03-20 05:37:28,165728,15.08834659,0.0001415,53.2185,28.7072,104.1142,256.0008,0,999,11356,-0.00017561,-3.081e-05,0.0,4234858,0 STARLINK-3663,1 51976U 22025W   24080.23435377 -.00003081  00000-0 -17561-3 0  9994,2 51976  53.2185  28.7072 0001415 104.1142 256.0008 15.08834659113560,2022-025W,51976,6917.897,95.438,540.741,538.783,0
GENERATED VIA SPACETRACK.ORG API,18 SPCS,51976,STARLINK-3663,PAYLOAD,U,22025W,2024-03-20 05:37:28,165728,15.08834659,0.0001415,53.2185,28.7072,104.1142,256.0008,0,999,11245,-0.00017561,-3.081e-05,0.0,4234892,0 STARLINK-3663,1 51976U 22025W   24080.23435377 -.00003081  00000-0 -17561-3 0  9994,2 51976  53.2185  28.7072 0001415 104.1142 256.0008 15.08834659112457,2022-025W,51976,6917.897,95.438,540.741,538.783,0
GENERATED VIA SPACETRACK.ORG API,18 SPCS,51976,STARLINK-3663,PAYLOAD,U,22025W,2024-03-21 13:25:11,595072,15.08835288,0.0001317,53.2175,22.7559,107.2096,252.9041,0,999,11376,9.6989e-06,-1.34e-06,0.0,4236614,0 STARLINK-3663,1 51976U 22025W   24081.55916198 -.00000134  00000-0  96989-5 0  9993,2 51976  53.2175  22.7559 0001317 107.2096 252.9041 15.08835288113769,2022-025W,51976,6917.895,95.438,540.671,538.849,0
GENERATED VIA SPACETRACK.ORG API,18 SPCS,51976,STARLINK-3663,PAYLOAD,U,22025W,2024-03-22 05:19:01,963200,15.08854116,0.000137,53.2176,19.7842,69.3871,290.7268,0,999,11386,0.00052692,8.111e-05,0.0,4237919,0 STARLINK-3663,1 51976U 22025W   24082.22155050  .00008111  00000-0  52692-3 0  9993,2 51976  53.2176  19.7842 0001370  69.3871 290.7268 15.08854116113862,2022-025W,51976,6917.837,95.437,540.65,538.754,0
GENERATED VIA SPACETRACK.ORG API,18 SPCS,51976,STARLINK-3663,PAYLOAD,U,22025W,2024-03-22 05:19:01,963200,15.08854116,0.000137,53.2176,19.7842,69.3871,290.7268,0,999,11275,0.00052692,8.111e-05,0.0,4238588,0 STARLINK-3663,1 51976U 22025W   24082.22155050  .00008111  00000-0  52692-3 0  9993,2 51976  53.2176  19.7842 0001370  69.3871 290.7268 15.08854116112759,2022-025W,51976,6917.837,95.437,540.65,538.754,0
GENERATED VIA SPACETRACK.ORG API,18 SPCS,51976,STARLINK-3663,PAYLOAD,U,22025W,2024-03-22 19:37:31,584288,15.08819456,0.0001285,53.219,17.1059,92.6871,267.4268,0,999,11395,-0.00033803,-5.66e-05,0.0,4239181,0 STARLINK-3663,1 51976U 22025W   24082.81772667 -.00005660  00000-0 -33803-3 0  9998,2 51976  53.2190  17.1059 0001285  92.6871 267.4268 15.08819456113953,2022-025W,51976,6917.943,95.439,540.697,538.919,0
GENERATED VIA SPACETRACK.ORG API,18 SPCS,51976,STARLINK-3663,PAYLOAD,U,22025W,2024-03-22 22:48:17,956512,15.08821958,0.0001402,53.2177,16.5148,101.3974,258.7175,0,999,11286,-0.00026945,-4.571e-05,0.0,4239209,0 STARLINK-3663,1 51976U 22025W   24082.95020783 -.00004571  00000-0 -26945-3 0  9997,2 51976  53.2177  16.5148 0001402 101.3974 258.7175 15.08821958112862,2022-025W,51976,6917.936,95.439,540.77,538.831,0
GENERATED VIA SPACETRACK.ORG API,18 SPCS,51976,STARLINK-3663,PAYLOAD,U,22025W,2024-03-23 05:09:50,550624,15.08825718,0.0001507,53.2187,15.3232,98.6593,261.4569,0,999,11401,-0.0001516,-2.699e-05,0.0,4239763,0 STARLINK-3663,1 51976U 22025W   24083.21516841 -.00002699  00000-0 -15160-3 0  9998,2 51976  53.2187  15.3232 0001507  98.6593 261.4569 15.08825718114010,2022-025W,51976,6917.924,95.438,540.832,538.747,0
GENERATED VIA SPACETRACK.ORG API,18 SPCS,51976,STARLINK-3663,PAYLOAD,U,22025W,2024-03-23 22:39:04,637088,15.08847076,0.0001385,53.2201,12.0579,67.9698,292.1441,0,999,11301,0.00019558,2.827e-05,0.0,4241084,0 STARLINK-3663,1 51976U 22025W   24083.94380367  .00002827  00000-0  19558-3 0  9996,2 51976  53.2201  12.0579 0001385  67.9698 292.1441 15.08847076113014,2022-025W,51976,6917.859,95.437,540.682,538.766,0
GENERATED VIA SPACETRACK.ORG API,18 SPCS,51976,STARLINK-3663,PAYLOAD,U,22025W,2024-03-24 05:00:36,686016,15.08870194,0.0001513,53.2187,10.863,81.2687,278.8477,0,999,11416,0.0011123,0.00017473,0.0,4241635,0 STARLINK-3663,1 51976U 22025W   24084.20875794  .00017473  00000-0  11123-2 0  9991,2 51976  53.2187  10.8630 0001513  81.2687 278.8477 15.08870194114165,2022-025W,51976,6917.788,95.436,540.7,538.606,0
GENERATED VIA SPACETRACK.ORG API,18 SPCS,51976,STARLINK-3663,PAYLOAD,U,22025W,2024-03-24 19:19:06,633696,15.08815653,5.04e-05,53.2194,8.1881,159.5363,200.565,0,999,11425,-0.00026856,-4.556e-05,0.0,4243022,0 STARLINK-3663,1 51976U 22025W   24084.80493789 -.00004556  00000-0 -26856-3 0  9997,2 51976  53.2194   8.1881 0000504 159.5363 200.5650 15.08815653114254,2022-025W,51976,6917.955,95.439,540.168,539.471,0
GENERATED VIA SPACETRACK.ORG API,18 SPCS,51976,STARLINK-3663,PAYLOAD,U,22025W,2024-03-24 22:29:52,321632,15.08855781,0.0001961,53.2191,7.5934,131.9221,228.1939,0,999,11316,0.00081923,0.0001278,0.0,4243115,0 STARLINK-3663,1 51976U 22025W   24084.93741113  .00012780  00000-0  81923-3 0  9990,2 51976  53.2191   7.5934 0001961 131.9221 228.1939 15.08855781113169,2022-025W,51976,6917.832,95.437,541.054,538.341,0
